[{"OBJECT_NAME":"STARLINK-30604","OBJECT_ID":"2023-160A","EPOCH":"2026-03-09T23:40:49.562400","MEAN_MOTION":15.26728625,"ECCENTRICITY":0.00051432,"INCLINATION":43.0091,"RA_OF_ASC_NODE":76.0129,"ARG_OF_PERICENTER":307.6879,"MEAN_ANOMALY":52.3506,"EPHEMERIS_TYPE":0,"CLASSIFICATION_TYPE":"U","NORAD_CAT_ID":58075,"ELEMENT_SET_NO":999,"REV_AT_EPOCH":13299,"BSTAR":0.00020541001,"MEAN_MOTION_DOT":5.252e-5,"MEAN_MOTION_DDOT":0},{"OBJECT_NAME":"KUIPER-00276","OBJECT_ID":"2026-030AG","EPOCH":"2026-03-09T22:00:01.999584","MEAN_MOTION":15.30162454,"ECCENTRICITY":0.00186471,"INCLINATION":51.8824,"RA_OF_ASC_NODE":218.7283,"ARG_OF_PERICENTER":66.9346,"MEAN_ANOMALY":101.1527,"EPHEMERIS_TYPE":0,"CLASSIFICATION_TYPE":"U","NORAD_CAT_ID":67794,"ELEMENT_SET_NO":999,"REV_AT_EPOCH":482,"BSTAR":0.0021152378,"MEAN_MOTION_DOT":0.00063116,"MEAN_MOTION_DDOT":0}]
